[{"OBJECT_NAME":"STARLINK-4059","OBJECT_ID":"2022-086J","EPOCH":"2026-03-09T15:31:47.094240","MEAN_MOTION":15.0882941,"ECCENTRICITY":9.76e-5,"INCLINATION":53.2172,"RA_OF_ASC_NODE":194.3124,"ARG_OF_PERICENTER":63.6237,"MEAN_ANOMALY":296.4855,"EPHEMERIS_TYPE":0,"CLASSIFICATION_TYPE":"U","NORAD_CAT_ID":53250,"ELEMENT_SET_NO":999,"REV_AT_EPOCH":20106,"BSTAR":0.0001461,"MEAN_MOTION_DOT":2.038e-5,"MEAN_MOTION_DDOT":0},{"OBJECT_NAME":"IRIDIUM 33 DEB","OBJECT_ID":"1997-051QE","EPOCH":"2026-03-07T09:35:18.798432","MEAN_MOTION":15.07266806,"ECCENTRICITY":0.0013423,"INCLINATION":86.3519,"RA_OF_ASC_NODE":312.8742,"ARG_OF_PERICENTER":171.2899,"MEAN_ANOMALY":188.8573,"EPHEMERIS_TYPE":0,"CLASSIFICATION_TYPE":"U","NORAD_CAT_ID":35484,"ELEMENT_SET_NO":999,"REV_AT_EPOCH":63287,"BSTAR":0.0040001,"MEAN_MOTION_DOT":0.00060878,"MEAN_MOTION_DDOT":0}]
